{
  "type": "FeatureCollection",
  "features": [
    {
      "type": "Feature",
      "properties": {
        "norad_id": 63632,
        "name": "SHENZHOU-20 (SZ-20)",
        "group": "stations",
        "lat": 23.688787656743425,
        "lon": 70.32665339359494,
        "alt_km": 382.05475676554124,
        "timestamp": "2025-12-08T19:31:47.653589+00:00",
        "meta_object_name": "SHENZHOU-20 (SZ-20)",
        "meta_object_id": "2025-082A",
        "meta_epoch": "2025-12-08T07:04:12.884448",
        "meta_mean_motion": 15.58883062,
        "meta_eccentricity": 0.00091533,
        "meta_inclination": 41.4681,
        "meta_ra_of_asc_node": 43.6887,
        "meta_arg_of_pericenter": 354.9466,
        "meta_mean_anomaly": 5.1278,
        "meta_ephemeris_type": 0,
        "meta_classification_type": "U",
        "meta_norad_cat_id": 63632,
        "meta_element_set_no": 999,
        "meta_rev_at_epoch": 25530,
        "meta_bstar": 0.000309658,
        "meta_mean_motion_dot": 0.00024468,
        "meta_mean_motion_ddot": 0,
        "tle_line1": "1 63632U 25082A   25342.29459357  .00024468  00000+0  30966-3 0  9997",
        "tle_line2": "2 63632  41.4681  43.6887 0009153 354.9466   5.1278 15.58883062255301"
      },
      "geometry": {
        "type": "Point",
        "coordinates": [
          70.32665339359494,
          23.688787656743425
        ]
      }
    },
    {
      "type": "Feature",
      "properties": {
        "norad_id": 64751,
        "name": "PROGRESS-MS 31",
        "group": "stations",
        "lat": 49.091769189606026,
        "lon": -131.96539409938208,
        "alt_km": 413.5941259744777,
        "timestamp": "2025-12-08T19:31:47.653598+00:00",
        "meta_object_name": "PROGRESS-MS 31",
        "meta_object_id": "2025-146A",
        "meta_epoch": "2025-12-08T05:16:39.559584",
        "meta_mean_motion": 15.49412336,
        "meta_eccentricity": 0.00034318,
        "meta_inclination": 51.6305,
        "meta_ra_of_asc_node": 164.8582,
        "meta_arg_of_pericenter": 219.3069,
        "meta_mean_anomaly": 140.7671,
        "meta_ephemeris_type": 0,
        "meta_classification_type": "U",
        "meta_norad_cat_id": 64751,
        "meta_element_set_no": 999,
        "meta_rev_at_epoch": 675,
        "meta_bstar": 0.00022082399,
        "meta_mean_motion_dot": 0.00011911,
        "meta_mean_motion_ddot": 0,
        "tle_line1": "1 64751U 25146A   25342.21990231  .00011911  00000+0  22082-3 0  9993",
        "tle_line2": "2 64751  51.6305 164.8582 0003431 219.3069 140.7671 15.49412336  6752"
      },
      "geometry": {
        "type": "Point",
        "coordinates": [
          -131.96539409938208,
          49.091769189606026
        ]
      }
    },
    {
      "type": "Feature",
      "properties": {
        "norad_id": 64786,
        "name": "TIANZHOU-9",
        "group": "stations",
        "lat": 23.68878836829958,
        "lon": 70.3266544994125,
        "alt_km": 382.0547567341873,
        "timestamp": "2025-12-08T19:31:47.653608+00:00",
        "meta_object_name": "TIANZHOU-9",
        "meta_object_id": "2025-149A",
        "meta_epoch": "2025-12-08T07:04:12.884448",
        "meta_mean_motion": 15.58883062,
        "meta_eccentricity": 0.00091533,
        "meta_inclination": 41.4681,
        "meta_ra_of_asc_node": 43.6887,
        "meta_arg_of_pericenter": 354.9466,
        "meta_mean_anomaly": 5.1278,
        "meta_ephemeris_type": 0,
        "meta_classification_type": "U",
        "meta_norad_cat_id": 64786,
        "meta_element_set_no": 999,
        "meta_rev_at_epoch": 25530,
        "meta_bstar": 0.000309658,
        "meta_mean_motion_dot": 0.00024468,
        "meta_mean_motion_ddot": 0,
        "tle_line1": "1 64786U 25149A   25342.29459357  .00024468  00000+0  30966-3 0  9992",
        "tle_line2": "2 64786  41.4681  43.6887 0009153 354.9466   5.1278 15.58883062255302"
      },
      "geometry": {
        "type": "Point",
        "coordinates": [
          70.3266544994125,
          23.68878836829958
        ]
      }
    },
    {
      "type": "Feature",
      "properties": {
        "norad_id": 65077,
        "name": "CREW DRAGON 11",
        "group": "stations",
        "lat": 49.09176962052717,
        "lon": -131.96539213407823,
        "alt_km": 413.5941258833964,
        "timestamp": "2025-12-08T19:31:47.653619+00:00",
        "meta_object_name": "CREW DRAGON 11",
        "meta_object_id": "2025-166A",
        "meta_epoch": "2025-12-08T05:16:39.559584",
        "meta_mean_motion": 15.49412336,
        "meta_eccentricity": 0.00034318,
        "meta_inclination": 51.6305,
        "meta_ra_of_asc_node": 164.8582,
        "meta_arg_of_pericenter": 219.3069,
        "meta_mean_anomaly": 140.7671,
        "meta_ephemeris_type": 0,
        "meta_classification_type": "U",
        "meta_norad_cat_id": 65077,
        "meta_element_set_no": 999,
        "meta_rev_at_epoch": 214,
        "meta_bstar": 0.00022082399,
        "meta_mean_motion_dot": 0.00011911,
        "meta_mean_motion_ddot": 0,
        "tle_line1": "1 65077U 25166A   25342.21990231  .00011911  00000+0  22082-3 0  9997",
        "tle_line2": "2 65077  51.6305 164.8582 0003431 219.3069 140.7671 15.49412336  2143"
      },
      "geometry": {
        "type": "Point",
        "coordinates": [
          -131.96539213407823,
          49.09176962052717
        ]
      }
    },
    {
      "type": "Feature",
      "properties": {
        "norad_id": 65304,
        "name": "DRAGON CRS-33",
        "group": "stations",
        "lat": 49.0917698052077,
        "lon": -131.965391291805,
        "alt_km": 413.5941258443654,
        "timestamp": "2025-12-08T19:31:47.653628+00:00",
        "meta_object_name": "DRAGON CRS-33",
        "meta_object_id": "2025-186A",
        "meta_epoch": "2025-12-08T05:16:39.559584",
        "meta_mean_motion": 15.49412336,
        "meta_eccentricity": 0.00034318,
        "meta_inclination": 51.6305,
        "meta_ra_of_asc_node": 164.8582,
        "meta_arg_of_pericenter": 219.3069,
        "meta_mean_anomaly": 140.7671,
        "meta_ephemeris_type": 0,
        "meta_classification_type": "U",
        "meta_norad_cat_id": 65304,
        "meta_element_set_no": 999,
        "meta_rev_at_epoch": 11,
        "meta_bstar": 0.00022082399,
        "meta_mean_motion_dot": 0.00011911,
        "meta_mean_motion_ddot": 0,
        "tle_line1": "1 65304U 25186A   25342.21990231  .00011911  00000+0  22082-3 0  9992",
        "tle_line2": "2 65304  51.6305 164.8582 0003431 219.3069 140.7671 15.49412336   111"
      },
      "geometry": {
        "type": "Point",
        "coordinates": [
          -131.965391291805,
          49.0917698052077
        ]
      }
    },
    {
      "type": "Feature",
      "properties": {
        "norad_id": 65586,
        "name": "PROGRESS-MS 32",
        "group": "stations",
        "lat": 49.091770030927684,
        "lon": -131.9653902623629,
        "alt_km": 413.5941257966542,
        "timestamp": "2025-12-08T19:31:47.653639+00:00",
        "meta_object_name": "PROGRESS-MS 32",
        "meta_object_id": "2025-204A",
        "meta_epoch": "2025-12-08T05:16:39.559584",
        "meta_mean_motion": 15.49412336,
        "meta_eccentricity": 0.00034318,
        "meta_inclination": 51.6305,
        "meta_ra_of_asc_node": 164.8582,
        "meta_arg_of_pericenter": 219.3069,
        "meta_mean_anomaly": 140.7671,
        "meta_ephemeris_type": 0,
        "meta_classification_type": "U",
        "meta_norad_cat_id": 65586,
        "meta_element_set_no": 999,
        "meta_rev_at_epoch": 27,
        "meta_bstar": 0.00022082399,
        "meta_mean_motion_dot": 0.00011911,
        "meta_mean_motion_ddot": 0,
        "tle_line1": "1 65586U 25204A   25342.21990231  .00011911  00000+0  22082-3 0  9995",
        "tle_line2": "2 65586  51.6305 164.8582 0003431 219.3069 140.7671 15.49412336   270"
      },
      "geometry": {
        "type": "Point",
        "coordinates": [
          -131.9653902623629,
          49.091770030927684
        ]
      }
    },
    {
      "type": "Feature",
      "properties": {
        "norad_id": 65616,
        "name": "CYGNUS NG-23",
        "group": "stations",
        "lat": 49.09177021560896,
        "lon": -131.96538942008607,
        "alt_km": 413.59412575762417,
        "timestamp": "2025-12-08T19:31:47.653648+00:00",
        "meta_object_name": "CYGNUS NG-23",
        "meta_object_id": "2025-208A",
        "meta_epoch": "2025-12-08T05:16:39.559584",
        "meta_mean_motion": 15.49412336,
        "meta_eccentricity": 0.00034318,
        "meta_inclination": 51.6305,
        "meta_ra_of_asc_node": 164.8582,
        "meta_arg_of_pericenter": 219.3069,
        "meta_mean_anomaly": 140.7671,
        "meta_ephemeris_type": 0,
        "meta_classification_type": "U",
        "meta_norad_cat_id": 65616,
        "meta_element_set_no": 999,
        "meta_rev_at_epoch": 22,
        "meta_bstar": 0.00022082399,
        "meta_mean_motion_dot": 0.00011911,
        "meta_mean_motion_ddot": 0,
        "tle_line1": "1 65616U 25208A   25342.21990231  .00011911  00000+0  22082-3 0  9993",
        "tle_line2": "2 65616  51.6305 164.8582 0003431 219.3069 140.7671 15.49412336   229"
      },
      "geometry": {
        "type": "Point",
        "coordinates": [
          -131.96538942008607,
          49.09177021560896
        ]
      }
    }
  ]
}